[
  {
    "OBJECT_NAME": "EWS-G2 (GOES 15)",
    "OBJECT_ID": "2010-008A",
    "EPOCH": "2025-04-21T23:04:44.855328",
    "MEAN_MOTION": 1.00274603,
    "ECCENTRICITY": 0.0001783,
    "INCLINATION": 0.182,
    "RA_OF_ASC_NODE": 86.126,
    "ARG_OF_PERICENTER": 191.4034,
    "MEAN_ANOMALY": 340.3434,
    "EPHEMERIS_TYPE": 0,
    "CLASSIFICATION_TYPE": "U",
    "NORAD_CAT_ID": 36411,
    "ELEMENT_SET_NO": 999,
    "REV_AT_EPOCH": 5541,
    "BSTAR": 0,
    "MEAN_MOTION_DOT": 4e-7,
    "MEAN_MOTION_DDOT": 0
  },
  {
    "OBJECT_NAME": "GOES 16",
    "OBJECT_ID": "2016-071A",
    "EPOCH": "2025-04-21T20:57:17.163648",
    "MEAN_MOTION": 1.00130896,
    "ECCENTRICITY": 0.0000941,
    "INCLINATION": 0.0544,
    "RA_OF_ASC_NODE": 280.4546,
    "ARG_OF_PERICENTER": 180.9207,
    "MEAN_ANOMALY": 342.1732,
    "EPHEMERIS_TYPE": 0,
    "CLASSIFICATION_TYPE": "U",
    "NORAD_CAT_ID": 41866,
    "ELEMENT_SET_NO": 999,
    "REV_AT_EPOCH": 3087,
    "BSTAR": 0,
    "MEAN_MOTION_DOT": -0.00000206,
    "MEAN_MOTION_DDOT": 0
  },
  {
    "OBJECT_NAME": "GOES 17",
    "OBJECT_ID": "2018-022A",
    "EPOCH": "2025-04-21T20:50:31.814592",
    "MEAN_MOTION": 1.00272012,
    "ECCENTRICITY": 0.0002516,
    "INCLINATION": 0.0175,
    "RA_OF_ASC_NODE": 321.5983,
    "ARG_OF_PERICENTER": 127.3935,
    "MEAN_ANOMALY": 329.4513,
    "EPHEMERIS_TYPE": 0,
    "CLASSIFICATION_TYPE": "U",
    "NORAD_CAT_ID": 43226,
    "ELEMENT_SET_NO": 999,
    "REV_AT_EPOCH": 2619,
    "BSTAR": 0,
    "MEAN_MOTION_DOT": -9e-7,
    "MEAN_MOTION_DDOT": 0
  },
  {
    "OBJECT_NAME": "GOES 18",
    "OBJECT_ID": "2022-021A",
    "EPOCH": "2025-04-22T05:18:19.292832",
    "MEAN_MOTION": 1.00270324,
    "ECCENTRICITY": 0.0000258,
    "INCLINATION": 0.0128,
    "RA_OF_ASC_NODE": 101.3784,
    "ARG_OF_PERICENTER": 353.1502,
    "MEAN_ANOMALY": 58.5928,
    "EPHEMERIS_TYPE": 0,
    "CLASSIFICATION_TYPE": "U",
    "NORAD_CAT_ID": 51850,
    "ELEMENT_SET_NO": 999,
    "REV_AT_EPOCH": 1158,
    "BSTAR": 0,
    "MEAN_MOTION_DOT": 9.9e-7,
    "MEAN_MOTION_DDOT": 0
  },
  {
    "OBJECT_NAME": "GOES 19",
    "OBJECT_ID": "2024-119A",
    "EPOCH": "2025-04-22T04:54:38.723040",
    "MEAN_MOTION": 1.00268062,
    "ECCENTRICITY": 0.0000485,
    "INCLINATION": 0.0183,
    "RA_OF_ASC_NODE": 102.6976,
    "ARG_OF_PERICENTER": 299.5299,
    "MEAN_ANOMALY": 166.7718,
    "EPHEMERIS_TYPE": 0,
    "CLASSIFICATION_TYPE": "U",
    "NORAD_CAT_ID": 60133,
    "ELEMENT_SET_NO": 999,
    "REV_AT_EPOCH": 308,
    "BSTAR": 0,
    "MEAN_MOTION_DOT": -0.00000245,
    "MEAN_MOTION_DDOT": 0
  }
]